#dP2020  8 20  0  0  0.00000000      96 __u+U ITR00 FIT  IAC
## 2119 345600.00000000   900.00000000 59081 0.0000000000000
+  114   C01C02C03C04C05C06C07C08C09C10C11C12C13C14C16C19C20
+        C21C22C23C24C25C26C27C28C29C30C32C33C34C35C36C37C43
+        E01E02E03E04E05E07E08E09E11E12E13E14E15E18E19E21E24
+        E25E26E27E30E31E33E36G01G02G03G04G05G06G07G08G09G10
+        G11G12G13G15G16G17G18G19G20G21G22G24G25G26G27G28G29
+        G30G31G32J01J02J03R01R02R03R04R05R07R08R09R11R12R13
+        R14R15R16R17R18R19R20R21R22R23R24R26  0  0  0  0  0
++        13 13 13 13 13  8  8  8  8  8  7  7  8  8  8  7  8
++         7  7  8  8  8  7  8  8  7  8  8  8  8  8  8  8 10
++         4  4  5  5  4  5  5  4  5  5  5  4  5  4  4  4  5
++         5  4  5  5  4  4  5  3  3  3  3  4  3  3  4  3  3
++         4  3  4  4  3  3  3  3  3  3  3  3  3  3  4  3  4
++         3  4  3  9  9  8  6  5  5  5  6  5  5  5  6  5  6
++         5  6  6  5  6  6  6  5  7  5  5  8  0  0  0  0  0
%c M  cc GPS ccc cccc cccc cccc cccc ccccc ccccc ccccc ccccc
%c cc cc ccc ccc cccc cccc cccc cccc ccccc ccccc ccccc ccccc
%f  0.0000000  0.000000000  0.00000000000  0.000000000000000
%f  0.0000000  0.000000000  0.00000000000  0.000000000000000
%i    0    0    0    0      0      0      0      0         0
%i    0    0    0    0      0      0      0      0         0
/* INFORMATION & ANALYSIS CENTER (IAC)            RAPID DATA
/* S/V CLOCKS ARE ALIGNED TO GNSS TIME                      
/* G:C1WC2W R:C1PC2P E:C1XC5X C:C2IC6I J:C1CC2S             
/* PCV:IGS14_2118 OL/AL:FES2004  NONE     YN ORB:CoN CLK:CoN
*  2020 08 20  2 30  0.00000000
PC01 -34301.603695  24486.735156   -315.347202   -216.154988
PC02   4302.052108  41950.316764     91.481224    399.014477
PC03 -14829.836446  39435.697983    922.553805    803.089485
PC04 -39596.062925  14407.958494    636.191650   -348.023888
PC05  21914.904635  36023.105643    -90.526875    -89.688290
PC06 -20674.054878  22340.758707 -28927.139299    211.567091
PC07 -17702.782206  37759.909582  -3469.735645     60.686220
PC08  -4482.104046  26873.467027  32371.737199   -459.873469
PC09  -5146.606955  24309.031901 -33837.326741    755.198477
PC10  -7789.060239  40263.184882   8905.334381   -207.029833
PC11 -21898.801678 -11853.779565 -12483.022401   -566.729933
PC12  -3594.235410 -15686.920143 -22764.532521    475.394649
PC13   7020.331655  34711.651380  23165.332828    604.733755
PC14 -11288.850283 -11433.356216  22843.338708    849.577644
PC16 -15636.663223  23312.390008 -31453.379628   -589.696565
PC19  17464.967918   1972.949926 -21658.333056    516.015823
PC20   4259.362743  18061.731652 -20818.831926   -836.794702
PC21  12089.888269 -24023.298125   7512.416444   -667.257520
PC22  20901.760105 -15621.997843  -9936.742996   -764.979877
PC23 -14362.979921   7635.962099 -22659.155669   -849.267690
PC24 -10909.852838 -25648.836419  -1145.911442   -740.292817
PC25 -18365.354122 -11916.268618 -17293.472325   -727.471035
PC26   1303.613219 -23720.886273  14617.412623    798.873011
PC27  -7590.245162  14558.367797  22547.634567    384.615879
PC28 -24200.032418   5155.073379  12892.254505   -180.579473
PC29  26869.424144   6217.913946   4262.853039    272.274979
PC30  13618.819816  15016.481431  19166.178936    363.648491
PC32 -11915.732974  24089.869200  -7477.353659   -886.786150
PC33 -17441.012346  -2030.946727  21687.570552   -793.723829
PC34 -14135.646523 -14969.039321 -18854.900903   -874.072430
PC35  24126.232342  -5889.420314 -12704.877217   -693.999508
PC36  18079.089689  12569.171828  17172.937051   -906.204264
PC37  -2326.823654  23343.944381 -15091.950754   -905.006563
PC43 -26727.790784  -6621.331894  -4593.962635 999999.999999
PE01  -3400.720822 -28304.710334  -7967.615574   -923.159168
PE02   3481.158250  28266.433382   8082.642944    155.634283
PE03   2527.049755  17499.084487 -23737.298477   -333.608581
PE04 -21059.138682  -5469.045239  20073.210831   -589.968695
PE05 -17758.488247  19434.329750 -13523.551051   -353.207448
PE07  27498.895815 -10014.420107  -4485.778784   -424.914943
PE08  21228.556162   5025.094805 -20012.303329   6132.645002
PE09 -27400.715437  10263.109031   4413.633364   5958.201291
PE11 -23073.779267   -526.816914  18526.239762   4912.795377
PE12 -25132.106293 -15612.515879   1061.013572   5647.383383
PE13  23168.513510    684.740393 -18411.740205    403.121192
PE14  -1022.780610 -20691.035624 -25103.369799  -1126.143122
PE15  25251.260373  15397.565557  -1261.240978    855.670649
PE18   5980.455512  14076.949890  17921.014537  -1231.560983
PE19    -86.053924 -18187.132193  23359.685484     57.437082
PE21   8753.535156 -26269.911069  10477.053418   -616.750571
PE24 -16276.488689   8361.452007 -23272.708928   5288.406553
PE25  -8820.783424  26189.113446 -10585.676563   -515.371967
PE26   7150.792939 -14829.961986 -24600.309461   2823.289911
PE27  16137.730157  -8852.060448  23192.073684    152.082211
PE30  13796.722615  14250.883816  21971.542435   3652.118890
PE31 -13991.874627 -13676.400880 -22199.754430   -473.711009
PE33 -12494.199646 -21060.737855 -16628.718604   -463.558129
PE36  -7476.146623  14426.245857  24740.456440    518.534341
PG01 -20803.044895 -12922.466726  10450.180948     34.607124
PG02  12211.279491  21624.026282  10111.475983   -504.665513
PG03 -14613.917395  -3692.101927  21791.263414   -275.069172
PG04 -25223.210286  -1371.899875   8274.550048   -126.487765
PG05   4132.488297  22037.323470 -14236.254404    -19.215506
PG06    -60.285127  18774.400324  18820.530308   -317.416201
PG07 -16452.253789   3263.592269 -20377.502460   -354.056826
PG08 -18776.271249  -7809.385393 -17212.954505    -45.062240
PG09 -25142.632502   8027.630532  -3104.077434   -273.109979
PG10  11627.088178 -22992.206419  -5803.407470   -432.336215
PG11 -23005.475438 -12330.220337  -4269.619993   -187.869445
PG12  13614.466021   5664.951963  21857.250615     78.305258
PG13  10317.591402  13399.738058 -20628.555741     37.412238
PG15  20150.805721   6452.586352 -16604.519055   -209.435316
PG16  -3651.582779 -20230.710939 -16774.563855   -197.979323
PG17 -14291.950388  14133.717334  17764.264475    313.600556
PG18  15674.062307  -4158.421593 -21056.098398    273.503231
PG19  -7025.827283  14648.190804  20704.059365   -116.146031
PG20  14841.162925 -14830.469828 -16224.558885    526.989126
PG21  -7023.928185 -20911.230403 -14288.742322     37.649299
PG22 -12674.039718 -12022.544776  20245.950845   -762.592070
PG24  21724.957986  13633.796427   7402.955660    -17.394515
PG25  16400.048225  -6941.483126  19384.408739     37.659240
PG26   4176.448568 -25762.509243  -4245.595049    264.339156
PG27  -7771.543661 -13350.665410 -21791.447579   -375.374613
PG28 -12490.134892  23198.211970  -3355.317068    687.743406
PG29  26351.716206  -3504.951977    296.622750   -176.546102
PG30  -8769.239763  13535.179516 -21023.249983   -285.632567
PG31   -777.217579 -19810.218157  17402.029052    -63.304023
PG32  12777.810466 -15407.972836  17469.090565    335.059955
PJ01 -34060.682174  24831.774202   4912.904105   -187.177437
PJ02 -20514.593328  27286.831476 -20216.722906     -2.576944
PJ03 -29482.243556  24272.450192  22868.444857     -0.562686
PR01  -9716.265422  18452.631576 -14677.713296     66.302659
PR02   8555.099440   6929.622383 -22968.534162    441.790155
PR03  19177.120609  -7301.623001 -15079.043450     20.611639
PR04  18743.839386 -17254.369858   1268.457772     60.404455
PR05   7842.985302 -17392.499119  16928.771092     56.123477
PR07 -19415.416034   7735.486899  14688.593627    -39.461978
PR08 -18802.840132  17208.307851  -1142.096718    -54.107793
PR09 -11405.812390 -16300.341528 -15990.911113    149.909605
PR11  -5893.991684  16322.556788 -18649.992154    -34.674629
PR12   2835.917390  24930.861056  -4601.866262    156.884018
PR13  10330.053702  19615.757217  12601.069619    -42.711548
PR14  11611.215238   2595.826214  22579.729152     54.640332
PR15   6250.324726 -15550.226217  19259.151977    106.973000
PR16  -3625.783453 -24873.568411   3943.715333     -5.507807
PR17  24142.316479   5113.878352  -6545.191439    351.097847
PR18  15199.066022  -4263.627543 -20012.221677     46.429693
PR19   -922.075571 -11228.263268 -22889.194625   -107.546191
PR20 -19094.627171 -12562.833182 -11359.125322   -419.717314
PR21 -23898.830393  -4644.422562   7548.318040   -146.300630
PR22 -14279.783117   4749.257411  20602.536527    -69.049981
PR23   8609.858029  12695.404631  20369.792593    326.446784
PR24  19574.488754  12463.101738  10626.878921     10.327309
PR26 -15456.177303 -12852.000998 -15674.260965   -362.000215
EOF
